GLOBALSTAR M094         
1 39074U 13005C   25130.72255610 -.00000100  00000+0  18870-4 0  9990
2 39074  51.9964 296.1842 0000905 127.1223 232.9726 12.62270741567644
GLOBALSTAR M096         
1 39075U 13005D   25130.89419431 -.00000085  00000+0  10531-3 0  9999
2 39075  52.0094 344.1479 0000957 107.4344 252.6627 12.62271156566585
GLOBALSTAR M078         
1 39076U 13005E   25130.86752972 -.00000121  00000+0 -97288-4 0  9994
2 39076  51.9880  68.7848 0001376  86.0285 274.0738 12.62261566565201
GLOBALSTAR M095         
1 39077U 13005F   25130.49806372 -.00000112  00000+0 -46062-4 0  9992
2 39077  51.9807  67.1257 0000869  96.1580 263.9385 12.62269522565018
GLOBALSTAR M087         
1 52888U 22064A   25130.52867336 -.00000095  00000+0  49418-4 0  9990
2 52888  51.9983 208.4493 0000529 133.0905 227.0006 12.62262895140280
